STARLINK-36088          
1 66941U 25286S   25362.58335648 -.00088404  00000+0 -15977-2 0  9995
2 66941  53.1589 331.8703 0001127  86.3028 352.5786 15.49340426  4538
STARLINK-36100          
1 66942U 25286T   25362.58335648 -.00128436  00000+0 -23349-2 0  9998
2 66942  53.1592 331.9348 0001570  78.6340 328.3594 15.49360998  4468
STARLINK-36109          
1 66943U 25286U   25362.58335648 -.00123096  00000+0 -22361-2 0  9999
2 66943  53.1591 331.9306 0001618  76.1529 332.7545 15.49359764  4461
STARLINK-36112          
1 66944U 25286V   25362.58335648 -.00073273  00000+0 -13208-2 0  9991
2 66944  53.1591 331.9264 0001481  90.9512 319.8840 15.49328838  4539
STARLINK-36110          
1 66945U 25286W   25362.58335648 -.00079995  00000+0 -14438-2 0  9995
2 66945  53.1591 331.9221 0001564  97.0491 315.7060 15.49331102  4536
STARLINK-36115          
1 66946U 25286X   25362.58335648 -.00071658  00000+0 -12912-2 0  9999
2 66946  53.1589 331.9185 0001537  92.7687 321.8989 15.49328445  4536
STARLINK-36089          
1 66947U 25286Y   25362.58335648 -.00083270  00000+0 -15038-2 0  9995
2 66947  53.1591 331.9093 0001659  93.2858 325.2215 15.49331850  4533
STARLINK-36116          
1 66948U 25286Z   25362.58335648 -.00073459  00000+0 -13243-2 0  9990
2 66948  53.1590 331.9142 0001564  98.9371 317.6531 15.49327150  4539
STARLINK-36096          
1 66949U 25286AA  25362.58335648 -.00172148  00000+0 -31442-2 0  9997
2 66949  53.1590 331.9062 0001722  74.1684 346.1942 15.49410381  4532
STARLINK-36111          
1 66950U 25286AB  25362.58335648 -.00080344  00000+0 -14502-2 0  9993
2 66950  53.1592 331.8977 0001587  87.3571 336.8998 15.49330735  4531
STARLINK-35999          
1 66951U 25286AC  25362.58335648 -.00075568  00000+0 -13628-2 0  9994
2 66951  53.1593 331.8935 0001716  93.2976 332.8776 15.49327463  4530
STARLINK-36122          
1 66952U 25286AD  25362.58335648 -.00081880  00000+0 -14784-2 0  9993
2 66952  53.1591 331.9019 0001538  93.9773 328.3639 15.49330706  4539
