CCSDS_OMM_VERS = 2.0
CREATION_DATE  = 
ORIGINATOR     = 

OBJECT_NAME    = STARLINK-36088
OBJECT_ID      = 2025-286S
CENTER_NAME    = EARTH
REF_FRAME      = TEME
TIME_SYSTEM    = UTC
MEAN_ELEMENT_THEORY = SGP/SGP4

EPOCH          = 2025-12-28T14:00:01.999872
MEAN_MOTION    = 15.49340426
ECCENTRICITY   = .00011278
INCLINATION    = 53.1589
RA_OF_ASC_NODE = 331.8703
ARG_OF_PERICENTER = 86.3028
MEAN_ANOMALY   = 352.5786

EPHEMERIS_TYPE = 0
CLASSIFICATION_TYPE = U
NORAD_CAT_ID   = 66941
ELEMENT_SET_NO = 999
REV_AT_EPOCH   = 453
BSTAR          = -.15976818E-2
MEAN_MOTION_DOT = -.88404E-3
MEAN_MOTION_DDOT = 0

CCSDS_OMM_VERS = 2.0
CREATION_DATE  = 
ORIGINATOR     = 

OBJECT_NAME    = STARLINK-36100
OBJECT_ID      = 2025-286T
CENTER_NAME    = EARTH
REF_FRAME      = TEME
TIME_SYSTEM    = UTC
MEAN_ELEMENT_THEORY = SGP/SGP4

EPOCH          = 2025-12-28T14:00:01.999872
MEAN_MOTION    = 15.49360998
ECCENTRICITY   = .00015706
INCLINATION    = 53.1592
RA_OF_ASC_NODE = 331.9348
ARG_OF_PERICENTER = 78.6340
MEAN_ANOMALY   = 328.3594

EPHEMERIS_TYPE = 0
CLASSIFICATION_TYPE = U
NORAD_CAT_ID   = 66942
ELEMENT_SET_NO = 999
REV_AT_EPOCH   = 446
BSTAR          = -.23349184E-2
MEAN_MOTION_DOT = -.128436E-2
MEAN_MOTION_DDOT = 0

CCSDS_OMM_VERS = 2.0
CREATION_DATE  = 
ORIGINATOR     = 

OBJECT_NAME    = STARLINK-36109
OBJECT_ID      = 2025-286U
CENTER_NAME    = EARTH
REF_FRAME      = TEME
TIME_SYSTEM    = UTC
MEAN_ELEMENT_THEORY = SGP/SGP4

EPOCH          = 2025-12-28T14:00:01.999872
MEAN_MOTION    = 15.49359764
ECCENTRICITY   = .00016182
INCLINATION    = 53.1591
RA_OF_ASC_NODE = 331.9306
ARG_OF_PERICENTER = 76.1529
MEAN_ANOMALY   = 332.7545

EPHEMERIS_TYPE = 0
CLASSIFICATION_TYPE = U
NORAD_CAT_ID   = 66943
ELEMENT_SET_NO = 999
REV_AT_EPOCH   = 446
BSTAR          = -.22360618E-2
MEAN_MOTION_DOT = -.123096E-2
MEAN_MOTION_DDOT = 0

CCSDS_OMM_VERS = 2.0
CREATION_DATE  = 
ORIGINATOR     = 

OBJECT_NAME    = STARLINK-36112
OBJECT_ID      = 2025-286V
CENTER_NAME    = EARTH
REF_FRAME      = TEME
TIME_SYSTEM    = UTC
MEAN_ELEMENT_THEORY = SGP/SGP4

EPOCH          = 2025-12-28T14:00:01.999872
MEAN_MOTION    = 15.49328838
ECCENTRICITY   = .00014811
INCLINATION    = 53.1591
RA_OF_ASC_NODE = 331.9264
ARG_OF_PERICENTER = 90.9512
MEAN_ANOMALY   = 319.8840

EPHEMERIS_TYPE = 0
CLASSIFICATION_TYPE = U
NORAD_CAT_ID   = 66944
ELEMENT_SET_NO = 999
REV_AT_EPOCH   = 453
BSTAR          = -.13207871E-2
MEAN_MOTION_DOT = -.73273E-3
MEAN_MOTION_DDOT = 0

CCSDS_OMM_VERS = 2.0
CREATION_DATE  = 
ORIGINATOR     = 

OBJECT_NAME    = STARLINK-36110
OBJECT_ID      = 2025-286W
CENTER_NAME    = EARTH
REF_FRAME      = TEME
TIME_SYSTEM    = UTC
MEAN_ELEMENT_THEORY = SGP/SGP4

EPOCH          = 2025-12-28T14:00:01.999872
MEAN_MOTION    = 15.49331102
ECCENTRICITY   = .00015642
INCLINATION    = 53.1591
RA_OF_ASC_NODE = 331.9221
ARG_OF_PERICENTER = 97.0491
MEAN_ANOMALY   = 315.7060

EPHEMERIS_TYPE = 0
CLASSIFICATION_TYPE = U
NORAD_CAT_ID   = 66945
ELEMENT_SET_NO = 999
REV_AT_EPOCH   = 453
BSTAR          = -.14438106E-2
MEAN_MOTION_DOT = -.79995E-3
MEAN_MOTION_DDOT = 0

CCSDS_OMM_VERS = 2.0
CREATION_DATE  = 
ORIGINATOR     = 

OBJECT_NAME    = STARLINK-36115
OBJECT_ID      = 2025-286X
CENTER_NAME    = EARTH
REF_FRAME      = TEME
TIME_SYSTEM    = UTC
MEAN_ELEMENT_THEORY = SGP/SGP4

EPOCH          = 2025-12-28T14:00:01.999872
MEAN_MOTION    = 15.49328445
ECCENTRICITY   = .00015376
INCLINATION    = 53.1589
RA_OF_ASC_NODE = 331.9185
ARG_OF_PERICENTER = 92.7687
MEAN_ANOMALY   = 321.8989

EPHEMERIS_TYPE = 0
CLASSIFICATION_TYPE = U
NORAD_CAT_ID   = 66946
ELEMENT_SET_NO = 999
REV_AT_EPOCH   = 453
BSTAR          = -.12912279E-2
MEAN_MOTION_DOT = -.71658E-3
MEAN_MOTION_DDOT = 0

CCSDS_OMM_VERS = 2.0
CREATION_DATE  = 
ORIGINATOR     = 

OBJECT_NAME    = STARLINK-36089
OBJECT_ID      = 2025-286Y
CENTER_NAME    = EARTH
REF_FRAME      = TEME
TIME_SYSTEM    = UTC
MEAN_ELEMENT_THEORY = SGP/SGP4

EPOCH          = 2025-12-28T14:00:01.999872
MEAN_MOTION    = 15.49331850
ECCENTRICITY   = .00016596
INCLINATION    = 53.1591
RA_OF_ASC_NODE = 331.9093
ARG_OF_PERICENTER = 93.2858
MEAN_ANOMALY   = 325.2215

EPHEMERIS_TYPE = 0
CLASSIFICATION_TYPE = U
NORAD_CAT_ID   = 66947
ELEMENT_SET_NO = 999
REV_AT_EPOCH   = 453
BSTAR          = -.15038146E-2
MEAN_MOTION_DOT = -.8327E-3
MEAN_MOTION_DDOT = 0

CCSDS_OMM_VERS = 2.0
CREATION_DATE  = 
ORIGINATOR     = 

OBJECT_NAME    = STARLINK-36116
OBJECT_ID      = 2025-286Z
CENTER_NAME    = EARTH
REF_FRAME      = TEME
TIME_SYSTEM    = UTC
MEAN_ELEMENT_THEORY = SGP/SGP4

EPOCH          = 2025-12-28T14:00:01.999872
MEAN_MOTION    = 15.49327150
ECCENTRICITY   = .00015641
INCLINATION    = 53.1590
RA_OF_ASC_NODE = 331.9142
ARG_OF_PERICENTER = 98.9371
MEAN_ANOMALY   = 317.6531

EPHEMERIS_TYPE = 0
CLASSIFICATION_TYPE = U
NORAD_CAT_ID   = 66948
ELEMENT_SET_NO = 999
REV_AT_EPOCH   = 453
BSTAR          = -.13242608E-2
MEAN_MOTION_DOT = -.73459E-3
MEAN_MOTION_DDOT = 0

CCSDS_OMM_VERS = 2.0
CREATION_DATE  = 
ORIGINATOR     = 

OBJECT_NAME    = STARLINK-36096
OBJECT_ID      = 2025-286AA
CENTER_NAME    = EARTH
REF_FRAME      = TEME
TIME_SYSTEM    = UTC
MEAN_ELEMENT_THEORY = SGP/SGP4

EPOCH          = 2025-12-28T14:00:01.999872
MEAN_MOTION    = 15.49410381
ECCENTRICITY   = .00017223
INCLINATION    = 53.1590
RA_OF_ASC_NODE = 331.9062
ARG_OF_PERICENTER = 74.1684
MEAN_ANOMALY   = 346.1942

EPHEMERIS_TYPE = 0
CLASSIFICATION_TYPE = U
NORAD_CAT_ID   = 66949
ELEMENT_SET_NO = 999
REV_AT_EPOCH   = 453
BSTAR          = -.31442237E-2
MEAN_MOTION_DOT = -.172148E-2
MEAN_MOTION_DDOT = 0

CCSDS_OMM_VERS = 2.0
CREATION_DATE  = 
ORIGINATOR     = 

OBJECT_NAME    = STARLINK-36111
OBJECT_ID      = 2025-286AB
CENTER_NAME    = EARTH
REF_FRAME      = TEME
TIME_SYSTEM    = UTC
MEAN_ELEMENT_THEORY = SGP/SGP4

EPOCH          = 2025-12-28T14:00:01.999872
MEAN_MOTION    = 15.49330735
ECCENTRICITY   = .00015872
INCLINATION    = 53.1592
RA_OF_ASC_NODE = 331.8977
ARG_OF_PERICENTER = 87.3571
MEAN_ANOMALY   = 336.8998

EPHEMERIS_TYPE = 0
CLASSIFICATION_TYPE = U
NORAD_CAT_ID   = 66950
ELEMENT_SET_NO = 999
REV_AT_EPOCH   = 453
BSTAR          = -.14502144E-2
MEAN_MOTION_DOT = -.80344E-3
MEAN_MOTION_DDOT = 0

CCSDS_OMM_VERS = 2.0
CREATION_DATE  = 
ORIGINATOR     = 

OBJECT_NAME    = STARLINK-35999
OBJECT_ID      = 2025-286AC
CENTER_NAME    = EARTH
REF_FRAME      = TEME
TIME_SYSTEM    = UTC
MEAN_ELEMENT_THEORY = SGP/SGP4

EPOCH          = 2025-12-28T14:00:01.999872
MEAN_MOTION    = 15.49327463
ECCENTRICITY   = .00017166
INCLINATION    = 53.1593
RA_OF_ASC_NODE = 331.8935
ARG_OF_PERICENTER = 93.2976
MEAN_ANOMALY   = 332.8776

EPHEMERIS_TYPE = 0
CLASSIFICATION_TYPE = U
NORAD_CAT_ID   = 66951
ELEMENT_SET_NO = 999
REV_AT_EPOCH   = 453
BSTAR          = -.13628282E-2
MEAN_MOTION_DOT = -.75568E-3
MEAN_MOTION_DDOT = 0

CCSDS_OMM_VERS = 2.0
CREATION_DATE  = 
ORIGINATOR     = 

OBJECT_NAME    = STARLINK-36122
OBJECT_ID      = 2025-286AD
CENTER_NAME    = EARTH
REF_FRAME      = TEME
TIME_SYSTEM    = UTC
MEAN_ELEMENT_THEORY = SGP/SGP4

EPOCH          = 2025-12-28T14:00:01.999872
MEAN_MOTION    = 15.49330706
ECCENTRICITY   = .00015381
INCLINATION    = 53.1591
RA_OF_ASC_NODE = 331.9019
ARG_OF_PERICENTER = 93.9773
MEAN_ANOMALY   = 328.3639

EPHEMERIS_TYPE = 0
CLASSIFICATION_TYPE = U
NORAD_CAT_ID   = 66952
ELEMENT_SET_NO = 999
REV_AT_EPOCH   = 453
BSTAR          = -.14783885E-2
MEAN_MOTION_DOT = -.8188E-3
MEAN_MOTION_DDOT = 0

